[{"OBJECT_NAME":"SUPERVIEW-1 03","OBJECT_ID":"2018-002A","EPOCH":"2026-03-09T22:14:33.880992","MEAN_MOTION":15.35916978,"ECCENTRICITY":0.00509393,"INCLINATION":97.3162,"RA_OF_ASC_NODE":154.1458,"ARG_OF_PERICENTER":177.0269,"MEAN_ANOMALY":183.1288,"EPHEMERIS_TYPE":0,"CLASSIFICATION_TYPE":"U","NORAD_CAT_ID":43099,"ELEMENT_SET_NO":999,"REV_AT_EPOCH":45311,"BSTAR":0.00062641306,"MEAN_MOTION_DOT":0.00022818,"MEAN_MOTION_DDOT":0},{"OBJECT_NAME":"STARLINK-32107","OBJECT_ID":"2024-086N","EPOCH":"2026-03-09T07:50:13.624512","MEAN_MOTION":15.27576443,"ECCENTRICITY":0.00011186,"INCLINATION":43.0007,"RA_OF_ASC_NODE":62.1957,"ARG_OF_PERICENTER":273.6734,"MEAN_ANOMALY":86.3989,"EPHEMERIS_TYPE":0,"CLASSIFICATION_TYPE":"U","NORAD_CAT_ID":59694,"ELEMENT_SET_NO":999,"REV_AT_EPOCH":10405,"BSTAR":-4.998548e-6,"MEAN_MOTION_DOT":-4.0e-6,"MEAN_MOTION_DDOT":0}]
